[{"OBJECT_NAME":"LEMUR-2-DEMBITZ","OBJECT_ID":"2017-042T","EPOCH":"2026-03-09T11:23:53.232288","MEAN_MOTION":15.26947128,"ECCENTRICITY":0.00069617,"INCLINATION":97.3807,"RA_OF_ASC_NODE":250.9241,"ARG_OF_PERICENTER":17.1421,"MEAN_ANOMALY":343.0051,"EPHEMERIS_TYPE":0,"CLASSIFICATION_TYPE":"U","NORAD_CAT_ID":42842,"ELEMENT_SET_NO":999,"REV_AT_EPOCH":47311,"BSTAR":0.00076560825,"MEAN_MOTION_DOT":0.00020231,"MEAN_MOTION_DDOT":0},{"OBJECT_NAME":"STARLINK-31783","OBJECT_ID":"2024-090W","EPOCH":"2026-03-09T08:21:35.882208","MEAN_MOTION":15.27582441,"ECCENTRICITY":0.00017197,"INCLINATION":43.0002,"RA_OF_ASC_NODE":185.7862,"ARG_OF_PERICENTER":288.569,"MEAN_ANOMALY":71.4975,"EPHEMERIS_TYPE":0,"CLASSIFICATION_TYPE":"U","NORAD_CAT_ID":59750,"ELEMENT_SET_NO":999,"REV_AT_EPOCH":10337,"BSTAR":-4.2087151e-5,"MEAN_MOTION_DOT":-1.42e-5,"MEAN_MOTION_DDOT":0}]
